IDEFIX & ARIANE 42P R/B 
1 27422U 02021B   26050.38650310  .00000259  00000+0  11495-3 0  9999
2 27422  98.5854 349.2137 0010727 239.3801 120.6325 14.31012235241402
AQUA                    
1 27424U 02022A   26050.48859443  .00000937  00000+0  19707-3 0  9998
2 27424  98.4143  17.5270 0001106  47.0380  64.8204 14.61928941266072
CZ-4B R/B               
1 27432U 02024C   26050.10996099  .00000041  00000+0  43719-4 0  9994
2 27432  98.8883 103.6065 0051104  76.2594 313.7725 14.14544164226618
MIDORI II (ADEOS-II)    
1 27597U 02056A   26050.46236149  .00000259  00000+0  11959-3 0  9994
2 27597  98.7738   8.8179 0002107  68.2252 291.9154 14.29270680207696
H-2A R/B                
1 27601U 02056E   26050.50243810  .00000253  00000+0  10340-3 0  9995
2 27601  98.3171  11.5642 0069397 215.0415 255.5140 14.33747435211500
CZ-4B R/B               
1 28059U 03049C   26050.50379298  .00000401  00000+0  10367-3 0  9990
2 28059  98.6861  44.6979 0047053 287.7870  71.8195 14.55000015183959
CZ-2C R/B               
1 28222U 04012C   26050.11069147  .00043519  00000+0  49065-3 0  9993
2 28222  97.7278 113.6725 0014767  22.5747 337.6156 15.62280756201371
SL-16 R/B               
1 28353U 04021B   26050.07176675  .00000307  00000+0  18447-3 0  9996
2 28353  70.9990 271.5660 0003233  54.0365 306.1057 14.14596233120203
CZ-4B R/B               
1 28415U 04035C   26050.12521594  .00006964  00000+0  24817-3 0  9993
2 28415  97.3524  84.5926 0033299  37.3688 322.9859 15.28702286177078
CZ-2C R/B               
1 28480U 04046B   26050.39484419  .00000107  00000+0  55098-4 0  9999
2 28480  98.1993 326.5158 0138740 208.5704 150.7826 14.26985315105898
ARIANE 5 R/B            
1 28499U 04049H   26050.44300526  .00000798  00000+0  94271-4 0  9996
2 28499  98.2595 218.2208 0085137  50.8125 310.0611 14.85228489143089
CZ-2D R/B               
1 28738U 05024B   26050.48341971  .00034292  00000+0  44970-3 0  9995
2 28738  97.3604  64.9855 0007631  90.1865 270.0266 15.58456206136940
