CCSDS_OMM_VERS = 2.0
CREATION_DATE  = 
ORIGINATOR     = 

OBJECT_NAME    = IDEFIX & ARIANE 42P R/B
OBJECT_ID      = 2002-021B
CENTER_NAME    = EARTH
REF_FRAME      = TEME
TIME_SYSTEM    = UTC
MEAN_ELEMENT_THEORY = SGP/SGP4

EPOCH          = 2026-02-19T09:16:33.867840
MEAN_MOTION    = 14.31012235
ECCENTRICITY   = .0010727
INCLINATION    = 98.5854
RA_OF_ASC_NODE = 349.2137
ARG_OF_PERICENTER = 239.3801
MEAN_ANOMALY   = 120.6325

EPHEMERIS_TYPE = 0
CLASSIFICATION_TYPE = U
NORAD_CAT_ID   = 27422
ELEMENT_SET_NO = 999
REV_AT_EPOCH   = 24140
BSTAR          = .11495E-3
MEAN_MOTION_DOT = .259E-5
MEAN_MOTION_DDOT = 0

CCSDS_OMM_VERS = 2.0
CREATION_DATE  = 
ORIGINATOR     = 

OBJECT_NAME    = AQUA
OBJECT_ID      = 2002-022A
CENTER_NAME    = EARTH
REF_FRAME      = TEME
TIME_SYSTEM    = UTC
MEAN_ELEMENT_THEORY = SGP/SGP4

EPOCH          = 2026-02-19T11:43:34.558752
MEAN_MOTION    = 14.61928941
ECCENTRICITY   = .0001106
INCLINATION    = 98.4143
RA_OF_ASC_NODE = 17.5270
ARG_OF_PERICENTER = 47.0380
MEAN_ANOMALY   = 64.8204

EPHEMERIS_TYPE = 0
CLASSIFICATION_TYPE = U
NORAD_CAT_ID   = 27424
ELEMENT_SET_NO = 999
REV_AT_EPOCH   = 26607
BSTAR          = .19707E-3
MEAN_MOTION_DOT = .937E-5
MEAN_MOTION_DDOT = 0

CCSDS_OMM_VERS = 2.0
CREATION_DATE  = 
ORIGINATOR     = 

OBJECT_NAME    = CZ-4B R/B
OBJECT_ID      = 2002-024C
CENTER_NAME    = EARTH
REF_FRAME      = TEME
TIME_SYSTEM    = UTC
MEAN_ELEMENT_THEORY = SGP/SGP4

EPOCH          = 2026-02-19T02:38:20.629536
MEAN_MOTION    = 14.14544164
ECCENTRICITY   = .00511048
INCLINATION    = 98.8883
RA_OF_ASC_NODE = 103.6065
ARG_OF_PERICENTER = 76.2594
MEAN_ANOMALY   = 313.7725

EPHEMERIS_TYPE = 0
CLASSIFICATION_TYPE = U
NORAD_CAT_ID   = 27432
ELEMENT_SET_NO = 999
REV_AT_EPOCH   = 22661
BSTAR          = .43718873E-4
MEAN_MOTION_DOT = .41E-6
MEAN_MOTION_DDOT = 0

CCSDS_OMM_VERS = 2.0
CREATION_DATE  = 
ORIGINATOR     = 

OBJECT_NAME    = MIDORI II (ADEOS-II)
OBJECT_ID      = 2002-056A
CENTER_NAME    = EARTH
REF_FRAME      = TEME
TIME_SYSTEM    = UTC
MEAN_ELEMENT_THEORY = SGP/SGP4

EPOCH          = 2026-02-19T11:05:48.032736
MEAN_MOTION    = 14.29270680
ECCENTRICITY   = .0002107
INCLINATION    = 98.7738
RA_OF_ASC_NODE = 8.8179
ARG_OF_PERICENTER = 68.2252
MEAN_ANOMALY   = 291.9154

EPHEMERIS_TYPE = 0
CLASSIFICATION_TYPE = U
NORAD_CAT_ID   = 27597
ELEMENT_SET_NO = 999
REV_AT_EPOCH   = 20769
BSTAR          = .11959E-3
MEAN_MOTION_DOT = .259E-5
MEAN_MOTION_DDOT = 0

CCSDS_OMM_VERS = 2.0
CREATION_DATE  = 
ORIGINATOR     = 

OBJECT_NAME    = H-2A R/B
OBJECT_ID      = 2002-056E
CENTER_NAME    = EARTH
REF_FRAME      = TEME
TIME_SYSTEM    = UTC
MEAN_ELEMENT_THEORY = SGP/SGP4

EPOCH          = 2026-02-19T12:03:30.651840
MEAN_MOTION    = 14.33747435
ECCENTRICITY   = .0069397
INCLINATION    = 98.3171
RA_OF_ASC_NODE = 11.5642
ARG_OF_PERICENTER = 215.0415
MEAN_ANOMALY   = 255.5140

EPHEMERIS_TYPE = 0
CLASSIFICATION_TYPE = U
NORAD_CAT_ID   = 27601
ELEMENT_SET_NO = 999
REV_AT_EPOCH   = 21150
BSTAR          = .1034E-3
MEAN_MOTION_DOT = .253E-5
MEAN_MOTION_DDOT = 0

CCSDS_OMM_VERS = 2.0
CREATION_DATE  = 
ORIGINATOR     = 

OBJECT_NAME    = CZ-4B R/B
OBJECT_ID      = 2003-049C
CENTER_NAME    = EARTH
REF_FRAME      = TEME
TIME_SYSTEM    = UTC
MEAN_ELEMENT_THEORY = SGP/SGP4

EPOCH          = 2026-02-19T12:05:27.713472
MEAN_MOTION    = 14.55000015
ECCENTRICITY   = .0047053
INCLINATION    = 98.6861
RA_OF_ASC_NODE = 44.6979
ARG_OF_PERICENTER = 287.7870
MEAN_ANOMALY   = 71.8195

EPHEMERIS_TYPE = 0
CLASSIFICATION_TYPE = U
NORAD_CAT_ID   = 28059
ELEMENT_SET_NO = 999
REV_AT_EPOCH   = 18395
BSTAR          = .10367E-3
MEAN_MOTION_DOT = .401E-5
MEAN_MOTION_DDOT = 0

CCSDS_OMM_VERS = 2.0
CREATION_DATE  = 
ORIGINATOR     = 

OBJECT_NAME    = CZ-2C R/B
OBJECT_ID      = 2004-012C
CENTER_NAME    = EARTH
REF_FRAME      = TEME
TIME_SYSTEM    = UTC
MEAN_ELEMENT_THEORY = SGP/SGP4

EPOCH          = 2026-02-19T02:39:23.743008
MEAN_MOTION    = 15.62280756
ECCENTRICITY   = .00147676
INCLINATION    = 97.7278
RA_OF_ASC_NODE = 113.6725
ARG_OF_PERICENTER = 22.5747
MEAN_ANOMALY   = 337.6156

EPHEMERIS_TYPE = 0
CLASSIFICATION_TYPE = U
NORAD_CAT_ID   = 28222
ELEMENT_SET_NO = 999
REV_AT_EPOCH   = 20137
BSTAR          = .49065007E-3
MEAN_MOTION_DOT = .43519E-3
MEAN_MOTION_DDOT = 0

CCSDS_OMM_VERS = 2.0
CREATION_DATE  = 
ORIGINATOR     = 

OBJECT_NAME    = SL-16 R/B
OBJECT_ID      = 2004-021B
CENTER_NAME    = EARTH
REF_FRAME      = TEME
TIME_SYSTEM    = UTC
MEAN_ELEMENT_THEORY = SGP/SGP4

EPOCH          = 2026-02-19T01:43:20.647200
MEAN_MOTION    = 14.14596233
ECCENTRICITY   = .0003233
INCLINATION    = 70.9990
RA_OF_ASC_NODE = 271.5660
ARG_OF_PERICENTER = 54.0365
MEAN_ANOMALY   = 306.1057

EPHEMERIS_TYPE = 0
CLASSIFICATION_TYPE = U
NORAD_CAT_ID   = 28353
ELEMENT_SET_NO = 999
REV_AT_EPOCH   = 12020
BSTAR          = .18447402E-3
MEAN_MOTION_DOT = .307E-5
MEAN_MOTION_DDOT = 0

CCSDS_OMM_VERS = 2.0
CREATION_DATE  = 
ORIGINATOR     = 

OBJECT_NAME    = CZ-4B R/B
OBJECT_ID      = 2004-035C
CENTER_NAME    = EARTH
REF_FRAME      = TEME
TIME_SYSTEM    = UTC
MEAN_ELEMENT_THEORY = SGP/SGP4

EPOCH          = 2026-02-19T03:00:18.657216
MEAN_MOTION    = 15.28702286
ECCENTRICITY   = .00332996
INCLINATION    = 97.3524
RA_OF_ASC_NODE = 84.5926
ARG_OF_PERICENTER = 37.3688
MEAN_ANOMALY   = 322.9859

EPHEMERIS_TYPE = 0
CLASSIFICATION_TYPE = U
NORAD_CAT_ID   = 28415
ELEMENT_SET_NO = 999
REV_AT_EPOCH   = 17707
BSTAR          = .24817293E-3
MEAN_MOTION_DOT = .6964E-4
MEAN_MOTION_DDOT = 0

CCSDS_OMM_VERS = 2.0
CREATION_DATE  = 
ORIGINATOR     = 

OBJECT_NAME    = CZ-2C R/B
OBJECT_ID      = 2004-046B
CENTER_NAME    = EARTH
REF_FRAME      = TEME
TIME_SYSTEM    = UTC
MEAN_ELEMENT_THEORY = SGP/SGP4

EPOCH          = 2026-02-19T09:28:34.538016
MEAN_MOTION    = 14.26985315
ECCENTRICITY   = .013874
INCLINATION    = 98.1993
RA_OF_ASC_NODE = 326.5158
ARG_OF_PERICENTER = 208.5704
MEAN_ANOMALY   = 150.7826

EPHEMERIS_TYPE = 0
CLASSIFICATION_TYPE = U
NORAD_CAT_ID   = 28480
ELEMENT_SET_NO = 999
REV_AT_EPOCH   = 10589
BSTAR          = .55098E-4
MEAN_MOTION_DOT = .107E-5
MEAN_MOTION_DDOT = 0

CCSDS_OMM_VERS = 2.0
CREATION_DATE  = 
ORIGINATOR     = 

OBJECT_NAME    = ARIANE 5 R/B
OBJECT_ID      = 2004-049H
CENTER_NAME    = EARTH
REF_FRAME      = TEME
TIME_SYSTEM    = UTC
MEAN_ELEMENT_THEORY = SGP/SGP4

EPOCH          = 2026-02-19T10:37:55.654464
MEAN_MOTION    = 14.85228489
ECCENTRICITY   = .0085137
INCLINATION    = 98.2595
RA_OF_ASC_NODE = 218.2208
ARG_OF_PERICENTER = 50.8125
MEAN_ANOMALY   = 310.0611

EPHEMERIS_TYPE = 0
CLASSIFICATION_TYPE = U
NORAD_CAT_ID   = 28499
ELEMENT_SET_NO = 999
REV_AT_EPOCH   = 14308
BSTAR          = .94271E-4
MEAN_MOTION_DOT = .798E-5
MEAN_MOTION_DDOT = 0

CCSDS_OMM_VERS = 2.0
CREATION_DATE  = 
ORIGINATOR     = 

OBJECT_NAME    = CZ-2D R/B
OBJECT_ID      = 2005-024B
CENTER_NAME    = EARTH
REF_FRAME      = TEME
TIME_SYSTEM    = UTC
MEAN_ELEMENT_THEORY = SGP/SGP4

EPOCH          = 2026-02-19T11:36:07.462944
MEAN_MOTION    = 15.58456206
ECCENTRICITY   = .0007631
INCLINATION    = 97.3604
RA_OF_ASC_NODE = 64.9855
ARG_OF_PERICENTER = 90.1865
MEAN_ANOMALY   = 270.0266

EPHEMERIS_TYPE = 0
CLASSIFICATION_TYPE = U
NORAD_CAT_ID   = 28738
ELEMENT_SET_NO = 999
REV_AT_EPOCH   = 13694
BSTAR          = .4497E-3
MEAN_MOTION_DOT = .34292E-3
MEAN_MOTION_DDOT = 0

